OBJECT_NAME,OBJECT_ID,EPOCH,MEAN_MOTION,ECCENTRICITY,INCLINATION,RA_OF_ASC_NODE,ARG_OF_PERICENTER,MEAN_ANOMALY,EPHEMERIS_TYPE,CLASSIFICATION_TYPE,NORAD_CAT_ID,ELEMENT_SET_NO,REV_AT_EPOCH,BSTAR,MEAN_MOTION_DOT,MEAN_MOTION_DDOT
STARLINK-36730,2026-034AA,2026-07-01T07:31:45.234336,15.34428674,.00011023,53.1602,33.5172,84.3032,275.8096,0,U,67874,999,2147,.13120571E-2,.44256E-3,0
STARLINK-36727,2026-034AB,2026-07-01T07:15:39.315168,15.31738846,.00008267,53.1593,35.5708,78.0626,282.0468,0,U,67875,999,2144,.96865056E-3,.2985E-3,0
STARLINK-36743,2026-034AC,2026-07-02T01:33:07.710912,15.30229115,.00010788,53.1590,33.2209,97.1114,263.0009,0,U,67876,999,2154,.61726917E-3,.17983E-3,0
STARLINK-36784,2026-034AD,2026-07-01T23:16:37.503264,15.29402708,.0000797,53.1597,34.0672,98.1674,261.9417,0,U,67877,999,2152,.10269204E-2,.29437E-3,0
STARLINK-36689,2026-034AE,2026-07-01T23:45:24.249600,15.30243850,.0000625,53.1607,33.4632,65.7903,294.3163,0,U,67878,999,2153,.10793347E-2,.31788E-3,0
STARLINK-36818,2026-035A,2026-07-02T06:34:18.366816,15.33449815,.00010947,97.2845,116.1868,245.3791,114.7337,0,U,67879,999,2154,.10817818E-2,.35016E-3,0
STARLINK-36821,2026-035B,2026-07-02T06:30:23.556672,15.33439637,.00006699,97.2842,116.1916,220.7638,139.3555,0,U,67880,999,2154,.96142587E-3,.31086E-3,0
STARLINK-36808,2026-035C,2026-07-02T07:01:42.643488,15.33466921,.00004447,97.2848,116.3192,253.8477,106.2717,0,U,67881,999,2155,.92124855E-3,.29804E-3,0
STARLINK-36817,2026-035D,2026-07-02T01:13:15.161952,15.33519682,.0002927,97.2866,116.0367,95.9504,264.2072,0,U,67882,999,2151,.13939545E-2,.45308E-3,0
STARLINK-36856,2026-035E,2026-07-02T01:17:09.858048,15.33471975,.00006758,97.2844,116.0306,144.9660,215.1628,0,U,67883,999,2151,.80895968E-3,.26154E-3,0
STARLINK-36842,2026-035F,2026-07-02T06:26:28.888224,15.33385672,.00015483,97.2847,116.1965,75.7549,284.3865,0,U,67884,999,2154,.32014173E-3,.10255E-3,0
STARLINK-36826,2026-035G,2026-07-02T06:10:49.276992,15.33450741,.00008535,97.2815,116.2078,129.7430,230.3888,0,U,67885,999,2154,.12076968E-3,.3827E-4,0
STARLINK-36390,2026-035H,2026-07-02T06:22:34.532544,15.33468629,.00023208,97.2824,116.1976,78.4752,281.6751,0,U,67886,999,2154,.75045385E-3,.2425E-3,0
STARLINK-36368,2026-035J,2026-07-02T07:13:28.242048,15.33480099,.00017703,97.2840,116.3077,131.4463,228.6932,0,U,67887,999,2155,.12847588E-2,.41678E-3,0
STARLINK-36801,2026-035K,2026-07-02T07:17:22.994304,15.33455141,.00006013,97.2866,116.3044,352.1397,7.9836,0,U,67888,999,2155,.12437141E-2,.40304E-3,0
STARLINK-36372,2026-035L,2026-07-01T06:21:44.220960,15.33472338,.00005434,97.2834,115.2692,102.5622,257.5682,0,U,67889,999,2139,.10518071E-2,.34064E-3,0
STARLINK-36363,2026-035M,2026-07-02T06:14:43.185120,15.33480547,.00026569,97.2842,116.2081,216.3516,143.7547,0,U,67890,999,2154,.11315802E-2,.36678E-3,0
STARLINK-36816,2026-035N,2026-07-02T06:36:05.501952,15.33461714,.00014014,97.2842,115.2776,251.1373,108.9717,0,U,67891,999,2148,.12153085E-2,.39386E-3,0
STARLINK-36813,2026-035P,2026-07-02T06:38:13.179552,15.33449985,.00012237,97.2829,116.3379,246.5884,113.5230,0,U,67892,999,2155,.87463084E-3,.28272E-3,0
STARLINK-36803,2026-035Q,2026-07-02T06:49:57.683424,15.33467355,.00016769,97.2848,116.3261,272.7366,87.3684,0,U,67893,999,2155,.10797819E-2,.34971E-3,0
STARLINK-36846,2026-035R,2026-07-02T01:36:46.258848,15.33440681,.00002181,97.2848,116.0111,338.5129,21.6105,0,U,67894,999,2151,.1178E-2,.38142E-3,0
STARLINK-36866,2026-035S,2026-07-02T06:02:59.247168,15.33454518,.00003069,97.2809,116.2183,84.2147,275.9130,0,U,67895,999,2154,-.15372948E-3,-.5036E-4,0
STARLINK-36877,2026-035T,2026-07-02T06:57:48.335328,15.33524267,.00002161,97.2808,116.3245,224.8907,135.2318,0,U,67896,999,2155,.154284E-2,.5019E-3,0
STARLINK-36870,2026-035U,2026-07-02T07:05:39.269760,15.33427782,.00017198,97.2857,116.3160,90.3745,269.7695,0,U,67897,999,2155,.12614417E-2,.40848E-3,0
STARLINK-36810,2026-035V,2026-07-02T07:21:18.396288,15.33490700,.00018201,97.2847,116.2999,85.6616,274.4835,0,U,67898,999,2155,.15744606E-2,.51174E-3,0
STARLINK-36878,2026-035W,2026-07-02T06:42:08.013888,15.33450740,.00010629,97.2848,116.3336,274.4061,85.7061,0,U,67899,999,2155,.1165355E-2,.37742E-3,0
STARLINK-36361,2026-035X,2026-07-02T06:46:03.126432,15.33443482,.00009064,97.2837,116.3310,226.7816,133.3351,0,U,67900,999,2155,.10662518E-2,.34503E-3,0
STARLINK-36336,2026-035Y,2026-07-02T07:09:34.994880,15.33450786,.00032843,97.2846,116.3095,89.0999,271.0620,0,U,67901,999,2155,.85137412E-3,.27519E-3,0
STARLINK-36876,2026-035Z,2026-07-02T06:53:52.703520,15.33479326,.0002069,97.2832,116.3253,258.2011,101.9000,0,U,67902,999,2155,.14297527E-2,.46419E-3,0
STARLINK-36257,2026-035AA,2026-07-02T06:06:54.119520,15.33442615,.00011876,97.2840,116.2165,117.2228,242.9136,0,U,67903,999,2154,-.19847261E-3,-.6477E-4,0
STARLINK-36814,2026-036A,2026-07-02T02:11:24.989280,15.27594907,.00005137,43.0007,319.6200,288.8513,71.2283,0,U,67904,999,2121,.35429491E-3,.9504E-4,0
STARLINK-36729,2026-036B,2026-07-02T02:07:42.806496,15.27588034,.00006574,43.0009,319.5825,281.6229,78.4549,0,U,67905,999,2121,.31225116E-3,.8342E-4,0
STARLINK-36763,2026-036C,2026-07-02T02:02:11.167872,15.27600155,.00015657,43.0043,319.5506,264.8918,95.1755,0,U,67906,999,2121,.11499396E-2,.31537E-3,0
STARLINK-36742,2026-036D,2026-07-02T01:56:36.564000,15.27570416,.00009852,43.0011,319.5212,324.0056,36.0730,0,U,67907,999,2121,.93811249E-3,.25635E-3,0
STARLINK-36827,2026-036E,2026-07-02T01:51:04.169376,15.27582952,.00022237,42.9979,319.4842,44.4967,315.6063,0,U,67908,999,2121,.11605805E-2,.31816E-3,0
STARLINK-36822,2026-036F,2026-07-02T01:45:29.945664,15.27594602,.00020924,43.0006,319.4613,259.3959,100.6657,0,U,67909,999,2121,.29603416E-3,.7896E-4,0
STARLINK-36847,2026-036G,2026-07-02T01:39:57.828384,15.27601461,.00016875,43.0008,319.4297,293.9453,66.1222,0,U,67910,999,2121,.74731926E-3,.20373E-3,0
STARLINK-36736,2026-036H,2026-07-02T01:30:41.379552,15.27621139,.00028307,43.0009,319.3706,271.2977,88.7550,0,U,67911,999,2121,.13688454E-2,.37648E-3,0
STARLINK-36676,2026-036J,2026-06-30T19:36:11.306592,15.27591300,.00012591,43.0021,326.3606,277.0089,83.0619,0,U,67912,999,2102,.71975991E-3,.19604E-3,0
STARLINK-36690,2026-036K,2026-07-01T19:02:57.994656,15.27617383,.0001861,43.0023,320.7904,266.6042,93.4597,0,U,67913,999,2117,.14244059E-2,.39188E-3,0
STARLINK-36724,2026-036L,2026-07-01T18:48:09.133920,15.27597363,.00018188,43.0038,320.7147,266.5881,93.4762,0,U,67914,999,2117,.97985952E-3,.26814E-3,0
STARLINK-36723,2026-036M,2026-07-02T05:56:31.044192,15.27580235,.00021917,43.0040,318.1697,256.6789,103.3818,0,U,67915,999,2124,.5529248E-3,.14984E-3,0
STARLINK-36721,2026-036N,2026-07-02T02:33:24.547968,15.27534547,.00009471,43.0068,318.8320,292.3247,67.7504,0,U,67916,999,2122,.67899762E-3,.18443E-3,0
STARLINK-36722,2026-036P,2026-07-02T02:27:50.002848,15.27579212,.00034635,43.0054,318.7998,262.7104,97.3354,0,U,67917,999,2122,.10220386E-2,.27971E-3,0
STARLINK-36341,2026-036Q,2026-07-02T02:13:15.748032,15.27571505,.00013112,43.0019,319.6172,261.5649,98.5054,0,U,67918,999,2121,.10720905E-2,.29349E-3,0
STARLINK-36663,2026-036R,2026-07-02T02:22:18.097248,15.27581290,.00013125,43.0056,318.7753,289.4177,70.6533,0,U,67919,999,2122,.41376733E-3,.11141E-3,0
STARLINK-36375,2026-036S,2026-07-02T02:04:00.889824,15.27589039,.00011464,43.0031,319.5530,32.5916,327.5006,0,U,67920,999,2121,.77854348E-3,.21229E-3,0
STARLINK-36405,2026-036T,2026-07-01T19:41:49.438176,15.27625707,.00010537,43.0007,321.0123,287.4633,72.6104,0,U,67921,999,2117,.88565221E-3,.24223E-3,0
STARLINK-36406,2026-036V,2026-07-02T01:47:22.339968,15.27575398,.000084,43.0015,319.4795,21.0867,339.0019,0,U,67923,999,2121,.10935723E-2,.29948E-3,0
STARLINK-36714,2026-036W,2026-07-02T01:41:47.545152,15.27593087,.00020403,43.0008,319.4315,289.1480,70.9151,0,U,67924,999,2121,.64034491E-3,.17408E-3,0
STARLINK-36726,2026-036X,2026-07-02T01:32:34.497024,15.27574607,.00029134,43.0007,319.3974,56.8933,303.2198,0,U,67925,999,2121,.89414325E-4,.2198E-4,0
STARLINK-36758,2026-036Y,2026-07-01T20:44:32.222976,15.27618713,.00010555,43.0019,320.4634,335.8450,24.2352,0,U,67926,999,2118,.12278767E-2,.33721E-3,0
STARLINK-36728,2026-036Z,2026-07-01T20:33:25.189056,15.27609429,.00025164,43.0063,320.3992,312.7313,47.3326,0,U,67927,999,2118,.72740833E-3,.19827E-3,0
STARLINK-36771,2026-036AA,2026-07-01T19:04:48.615168,15.27621254,.0002761,43.0029,320.7997,254.3699,105.6848,0,U,67928,999,2117,.10845081E-2,.29741E-3,0
STARLINK-36809,2026-036AB,2026-07-01T18:53:44.727936,15.27606052,.00009926,43.0039,320.7417,288.4483,71.6261,0,U,67929,999,2117,.90057898E-3,.24622E-3,0
STARLINK-36865,2026-036AC,2026-07-02T02:29:42.166464,15.27586347,.00007191,43.0059,318.8064,301.8941,58.1841,0,U,67930,999,2122,.37199905E-3,.999E-4,0
STARLINK-36781,2026-036AD,2026-07-02T02:35:14.061696,15.27593121,.00030587,43.0030,318.8421,263.4477,96.6027,0,U,67931,999,2122,.32819733E-3,.8784E-4,0
STARLINK-36301,2026-037A,2026-06-30T14:21:08.931456,15.27591877,.00025162,43.0008,273.5025,252.0781,107.9796,0,U,67932,999,2060,.81008961E-3,.22106E-3,0
STARLINK-36852,2026-037B,2026-07-01T16:56:16.777536,15.27609589,.00026621,42.9903,267.2284,24.9137,335.1843,0,U,67933,999,2077,.6698944E-3,.18235E-3,0
STARLINK-36861,2026-037C,2026-07-01T15:16:33.042720,15.27601770,.0001396,43.0010,267.5409,288.3566,71.7134,0,U,67934,999,2076,.65206842E-3,.17736E-3,0
STARLINK-36860,2026-037D,2026-07-01T23:01:46.391808,15.27610716,.00036877,43.0040,265.6733,264.7851,95.2580,0,U,67935,999,2081,.12044261E-2,.33065E-3,0
STARLINK-36848,2026-037E,2026-07-01T22:50:40.932096,15.27612455,.00011509,43.0059,265.6224,278.5071,81.5650,0,U,67936,999,2081,.78635353E-3,.21461E-3,0
STARLINK-36370,2026-037F,2026-07-01T22:56:14.347104,15.27574229,.00006492,43.0045,265.6445,15.0331,345.0540,0,U,67937,999,2081,.37792837E-3,.1015E-3,0
